{
    "links": {
        "self": "http://www.neowsapp.com/rest/v1/neo/3304383?api_key=iIulBulltgU6a56xZRHN4H3l9WmuAYTsLGpBGhQ2"
    },
    "id": "3304383",
    "neo_reference_id": "3304383",
    "name": "(2005 WM3)",
    "designation": "2005 WM3",
    "nasa_jpl_url": "http://ssd.jpl.nasa.gov/sbdb.cgi?sstr=3304383",
    "absolute_magnitude_h": 27.7,
    "estimated_diameter": {
        "kilometers": {
            "estimated_diameter_min": 0.0076657557,
            "estimated_diameter_max": 0.0171411509
        },
        "meters": {
            "estimated_diameter_min": 7.6657557353,
            "estimated_diameter_max": 17.1411509231
        },
        "miles": {
            "estimated_diameter_min": 0.0047632783,
            "estimated_diameter_max": 0.0106510141
        },
        "feet": {
            "estimated_diameter_min": 25.1501180466,
            "estimated_diameter_max": 56.2373735944
        }
    },
    "is_potentially_hazardous_asteroid": false,
    "close_approach_data": [
        {
            "close_approach_date": "2005-11-26",
            "close_approach_date_full": "2005-Nov-26 08:43",
            "epoch_date_close_approach": 1132994580000,
            "relative_velocity": {
                "kilometers_per_second": "7.9970696052",
                "kilometers_per_hour": "28789.4505788856",
                "miles_per_hour": "17888.6449999748"
            },
            "miss_distance": {
                "astronomical": "0.0098767843",
                "lunar": "3.8420690927",
                "kilometers": "1477545.893729441",
                "miles": "918104.4452946458"
            },
            "orbiting_body": "Earth"
        },
        {
            "close_approach_date": "2075-10-22",
            "close_approach_date_full": "2075-Oct-22 18:41",
            "epoch_date_close_approach": 3338995260000,
            "relative_velocity": {
                "kilometers_per_second": "15.0361598076",
                "kilometers_per_hour": "54130.175307257",
                "miles_per_hour": "33634.3858735565"
            },
            "miss_distance": {
                "astronomical": "0.2609937515",
                "lunar": "101.5265693335",
                "kilometers": "39044109.307709305",
                "miles": "24260884.531646209"
            },
            "orbiting_body": "Earth"
        }
    ],
    "orbital_data": {
        "orbit_id": "7",
        "orbit_determination_date": "2017-04-06 09:09:49",
        "first_observation_date": "2005-11-25",
        "last_observation_date": "2005-11-27",
        "data_arc_in_days": 2,
        "observations_used": 34,
        "orbit_uncertainty": "7",
        "minimum_orbit_intersection": ".0284279",
        "jupiter_tisserand_invariant": "3.072",
        "epoch_osculation": "2459000.5",
        "eccentricity": ".6203254394007756",
        "semi_major_axis": "2.670064960053513",
        "inclination": "1.230407515158055",
        "ascending_node_longitude": "240.0980626917275",
        "orbital_period": "1593.606777271194",
        "perihelion_distance": "1.013755740479703",
        "perihelion_argument": "190.3466775495318",
        "aphelion_distance": "4.326374179627323",
        "perihelion_time": "2458485.122272931006",
        "mean_anomaly": "116.425196222207",
        "mean_motion": ".2259026537377335",
        "equinox": "J2000",
        "orbit_class": {
            "orbit_class_type": "APO",
            "orbit_class_description": "Near-Earth asteroid orbits which cross the Earth’s orbit similar to that of 1862 Apollo",
            "orbit_class_range": "a (semi-major axis) > 1.0 AU; q (perihelion) < 1.017 AU"
        }
    },
    "is_sentry_object": false
}